OBJECT_NAME,OBJECT_ID,EPOCH,MEAN_MOTION,ECCENTRICITY,INCLINATION,RA_OF_ASC_NODE,ARG_OF_PERICENTER,MEAN_ANOMALY,EPHEMERIS_TYPE,CLASSIFICATION_TYPE,NORAD_CAT_ID,ELEMENT_SET_NO,REV_AT_EPOCH,BSTAR,MEAN_MOTION_DOT,MEAN_MOTION_DDOT
YAMAL 401,2014-082A,2026-07-05T00:12:08.994816,1.00269178,.000041,0.0108,53.5767,5.8636,316.5602,0,U,40345,999,4209,0,0,0
ASTRA 2G,2014-089A,2026-07-04T22:34:38.818848,1.00271001,.00047824,0.0453,356.8131,77.6388,215.3504,0,U,40364,999,4214,0,.163E-5,0
FENGYUN 2G,2014-090A,2026-07-04T23:35:57.366240,1.00265591,.00036514,5.6811,72.6060,150.0888,153.7970,0,U,40367,999,4217,0,-.29E-5,0
MUOS-3,2015-002A,2026-07-04T22:22:11.020800,1.00270364,.00528897,4.5543,43.5954,177.5845,21.8048,0,U,40374,999,4176,0,-.118E-5,0
INMARSAT 5-F2,2015-005A,2026-07-02T10:17:54.063744,1.00275452,.0000621,0.0184,20.4389,74.6010,284.8989,0,U,40384,999,4114,0,-.275E-5,0
ABS-3A,2015-010A,2026-07-03T04:36:38.743776,1.00269239,.000161,0.0433,62.9832,347.8334,296.5830,0,U,40424,999,4153,0,0,0
EUTELSAT 115 WEST B,2015-010B,2026-07-02T15:08:51.640800,1.00274403,.00001861,0.0049,195.2860,57.4934,140.1926,0,U,40425,999,4153,0,-.15E-6,0
EXPRESS-AM7,2015-012A,2026-07-04T19:12:41.340672,1.00272853,.00030864,0.0154,64.6799,47.0785,139.2073,0,U,40505,999,4118,0,.163E-5,0
BEIDOU-3S IGSO-1S,2015-019A,2026-07-02T19:12:21.705408,1.00680073,.00768606,49.1798,295.2769,219.1125,144.2493,0,U,40549,999,4123,0,-.19E-5,0
THOR 7,2015-022A,2026-07-03T22:29:12.954336,1.00271738,.0002398,0.0048,328.8477,135.2907,154.4872,0,U,40613,999,4098,0,0,0
TURKMENALEM52E/MONACOSAT,2015-023A,2026-07-04T22:41:23.171712,1.00272537,.0002809,0.0405,82.6432,15.4687,217.1967,0,U,40617,999,4102,0,.117E-5,0
DIRECTV 15,2015-026A,2026-07-02T16:54:47.505600,1.00269040,.00004838,0.0175,66.4844,341.1134,23.9506,0,U,40663,999,4061,0,-.91E-6,0
SKY MEXICO-1,2015-026B,2026-07-04T20:36:13.586112,1.00272502,.00024688,0.0154,64.0775,57.5228,31.5279,0,U,40664,999,4063,0,-.222E-5,0
METEOSAT-11 (MSG-4),2015-034A,2026-07-04T20:46:33.360960,1.00268624,.00022458,3.2446,70.9999,349.9240,182.8805,0,U,40732,999,739,0,.73E-6,0
STAR ONE C4,2015-034B,2026-07-01T11:59:08.988576,1.00269317,.00020315,0.0209,356.1227,82.6474,310.5523,0,U,40733,999,4015,0,-.254E-5,0
WGS F7 (USA 263),2015-036A,2026-07-02T18:14:08.094624,1.00271953,.00007334,0.0425,62.7431,142.1999,164.3698,0,U,40746,999,4002,0,0,0
INTELSAT 34 (IS-34),2015-039A,2026-07-02T13:42:57.573216,1.00269667,.0000469,0.0108,13.9056,22.0921,34.8455,0,U,40874,999,3978,0,-.275E-5,0
EUTELSAT 8 WEST B,2015-039B,2026-07-04T22:24:18.318240,1.00271397,.00037713,0.0626,351.4843,107.4436,152.0806,0,U,40875,999,3983,0,-.53E-6,0
GSAT-6,2015-041A,2026-07-04T19:24:48.369024,1.00269601,.00031191,1.9638,82.3749,12.6806,201.4418,0,U,40880,999,3977,0,-.147E-5,0
INMARSAT 5-F3,2015-042A,2026-07-02T18:15:30.464064,1.00270910,.00004795,0.0186,26.7442,88.4954,259.0251,0,U,40882,999,3972,0,.61E-6,0
MUOS-4,2015-044A,2026-07-04T21:48:28.673280,1.00271909,.00571402,4.3609,42.3329,3.3452,279.3452,0,U,40887,999,3973,0,-.82E-6,0
TJS-1,2015-046A,2026-07-04T21:28:01.078752,1.00269335,.00056958,0.3661,84.8668,11.3778,303.6414,0,U,40892,999,3974,0,-.144E-5,0
EXPRESS-AM8,2015-048A,2026-07-03T17:17:24.618912,1.00271998,.00001553,0.0133,314.4922,95.0414,117.5583,0,U,40895,999,3951,0,-.1E-5,0
BEIDOU-3S IGSO-2S,2015-053A,2026-07-04T20:28:22.719072,1.00255661,.00657379,49.1939,258.5724,193.1388,232.3570,0,U,40938,999,3953,0,-.105E-5,0
SKY MUSTER 1 (NBN1A),2015-054A,2026-07-02T19:46:54.158016,1.00271967,.00020678,0.0201,2.5459,93.9809,261.2984,0,U,40940,999,3941,0,0,0
ARSAT 2,2015-054B,2026-07-03T11:50:23.278272,1.00270688,.000212,0.0303,297.8813,156.8374,283.3902,0,U,40941,999,3946,0,-.213E-5,0
MORELOS 3,2015-056A,2026-07-04T16:46:17.576256,1.00271089,.00003745,3.2014,15.5271,36.2965,9.3506,0,U,40946,999,3946,0,-.32E-6,0
APSTAR-9,2015-059A,2026-07-04T23:07:05.708064,1.00270804,.00030622,0.0167,346.0549,195.1892,230.5116,0,U,40982,999,3929,0,-.253E-5,0
TURKSAT 4B,2015-060A,2026-07-03T14:10:26.236416,1.00277198,.0002222,0.0215,292.8631,166.7032,84.6706,0,U,40984,999,3926,0,.125E-5,0
ZHONGXING-2C,2015-063A,2026-07-04T22:56:06.761184,1.00270533,.0007973,0.3172,89.0279,95.8356,185.5786,0,U,41021,999,3915,0,-.311E-5,0
GSAT-15,2015-065A,2026-07-02T16:59:36.074688,1.00270279,.00044396,0.0419,250.8690,191.0709,187.1953,0,U,41028,999,3895,0,-.247E-5,0
BADR-7 (ARABSAT-6B),2015-065B,2026-07-04T22:56:45.153024,1.00268715,.00045301,0.0165,259.2442,302.2284,91.6681,0,U,41029,999,3894,0,0,0
