YAMAL 401               
1 40345U 14082A   26186.00843744  .00000000  00000+0  00000+0 0  9992
2 40345   0.0108  53.5767 0000410   5.8636 316.5602  1.00269178 42095
ASTRA 2G                
1 40364U 14089A   26185.94072707  .00000163  00000+0  00000+0 0  9995
2 40364   0.0453 356.8131 0004782  77.6388 215.3504  1.00271001 42141
FENGYUN 2G              
1 40367U 14090A   26185.98330285 -.00000290  00000+0  00000+0 0  9994
2 40367   5.6811  72.6060 0003651 150.0888 153.7970  1.00265591 42174
MUOS-3                  
1 40374U 15002A   26185.93207200 -.00000118  00000+0  00000+0 0  9990
2 40374   4.5543  43.5954 0052889 177.5845  21.8048  1.00270364 41764
INMARSAT 5-F2           
1 40384U 15005A   26183.42909796 -.00000275  00000+0  00000+0 0  9999
2 40384   0.0184  20.4389 0000621  74.6010 284.8989  1.00275452 41141
ABS-3A                  
1 40424U 15010A   26184.19211510  .00000000  00000+0  00000+0 0  9990
2 40424   0.0433  62.9832 0001610 347.8334 296.5830  1.00269239 41534
EUTELSAT 115 WEST B     
1 40425U 15010B   26183.63115325 -.00000015  00000+0  00000+0 0  9993
2 40425   0.0049 195.2860 0000186  57.4934 140.1926  1.00274403 41535
EXPRESS-AM7             
1 40505U 15012A   26185.80047848  .00000163  00000+0  00000+0 0  9992
2 40505   0.0154  64.6799 0003086  47.0785 139.2073  1.00272853 41182
BEIDOU-3S IGSO-1S       
1 40549U 15019A   26183.80025122 -.00000190  00000+0  00000+0 0  9997
2 40549  49.1798 295.2769 0076860 219.1125 144.2493  1.00680073 41232
THOR 7                  
1 40613U 15022A   26184.93695549  .00000000  00000+0  00000+0 0  9993
2 40613   0.0048 328.8477 0002398 135.2907 154.4872  1.00271738 40987
TURKMENALEM52E/MONACOSAT
1 40617U 15023A   26185.94540708  .00000117  00000+0  00000+0 0  9995
2 40617   0.0405  82.6432 0002809  15.4687 217.1967  1.00272537 41021
DIRECTV 15              
1 40663U 15026A   26183.70471650 -.00000091  00000+0  00000+0 0  9992
2 40663   0.0175  66.4844 0000483 341.1134  23.9506  1.00269040 40616
SKY MEXICO-1            
1 40664U 15026B   26185.85849058 -.00000222  00000+0  00000+0 0  9998
2 40664   0.0154  64.0775 0002468  57.5228  31.5279  1.00272502 40639
METEOSAT-11 (MSG-4)     
1 40732U 15034A   26185.86566390  .00000073  00000+0  00000+0 0  9992
2 40732   3.2446  70.9999 0002245 349.9240 182.8805  1.00268624  7394
STAR ONE C4             
1 40733U 15034B   26182.49940959 -.00000254  00000+0  00000+0 0  9998
2 40733   0.0209 356.1227 0002031  82.6474 310.5523  1.00269317 40151
WGS F7 (USA 263)        
1 40746U 15036A   26183.75981591  .00000000  00000+0  00000+0 0  9999
2 40746   0.0425  62.7431 0000733 142.1999 164.3698  1.00271953 40026
INTELSAT 34 (IS-34)     
1 40874U 15039A   26183.57149969 -.00000275  00000+0  00000+0 0  9994
2 40874   0.0108  13.9056 0000469  22.0921  34.8455  1.00269667 39786
EUTELSAT 8 WEST B       
1 40875U 15039B   26185.93354535 -.00000053  00000+0  00000+0 0  9998
2 40875   0.0626 351.4843 0003771 107.4436 152.0806  1.00271397 39836
GSAT-6                  
1 40880U 15041A   26185.80889316 -.00000147  00000+0  00000+0 0  9997
2 40880   1.9638  82.3749 0003119  12.6806 201.4418  1.00269601 39770
INMARSAT 5-F3           
1 40882U 15042A   26183.76076926  .00000061  00000+0  00000+0 0  9992
2 40882   0.0186  26.7442 0000479  88.4954 259.0251  1.00270910 39727
MUOS-4                  
1 40887U 15044A   26185.90866520 -.00000082  00000+0  00000+0 0  9998
2 40887   4.3609  42.3329 0057140   3.3452 279.3452  1.00271909 39731
TJS-1                   
1 40892U 15046A   26185.89445693 -.00000144  00000+0  00000+0 0  9997
2 40892   0.3661  84.8668 0005695  11.3778 303.6414  1.00269335 39746
EXPRESS-AM8             
1 40895U 15048A   26184.72042383 -.00000100  00000+0  00000+0 0  9994
2 40895   0.0133 314.4922 0000155  95.0414 117.5583  1.00271998 39519
BEIDOU-3S IGSO-2S       
1 40938U 15053A   26185.85304073 -.00000105  00000+0  00000+0 0  9995
2 40938  49.1939 258.5724 0065737 193.1388 232.3570  1.00255661 39533
SKY MUSTER 1 (NBN1A)    
1 40940U 15054A   26183.82423794  .00000000  00000+0  00000+0 0  9999
2 40940   0.0201   2.5459 0002067  93.9809 261.2984  1.00271967 39412
ARSAT 2                 
1 40941U 15054B   26184.49332498 -.00000213  00000+0  00000+0 0  9991
2 40941   0.0303 297.8813 0002120 156.8374 283.3902  1.00270688 39464
MORELOS 3               
1 40946U 15056A   26185.69881454 -.00000032  00000+0  00000+0 0  9991
2 40946   3.2014  15.5271 0000374  36.2965   9.3506  1.00271089 39464
APSTAR-9                
1 40982U 15059A   26185.96326051 -.00000253  00000+0  00000+0 0  9996
2 40982   0.0167 346.0549 0003062 195.1892 230.5116  1.00270804 39299
TURKSAT 4B              
1 40984U 15060A   26184.59058144  .00000125  00000+0  00000+0 0  9990
2 40984   0.0215 292.8631 0002222 166.7032  84.6706  1.00277198 39265
ZHONGXING-2C            
1 41021U 15063A   26185.95563381 -.00000311  00000+0  00000+0 0  9999
2 41021   0.3172  89.0279 0007973  95.8356 185.5786  1.00270533 39159
GSAT-15                 
1 41028U 15065A   26183.70805642 -.00000247  00000+0  00000+0 0  9996
2 41028   0.0419 250.8690 0004439 191.0709 187.1953  1.00270279 38955
BADR-7 (ARABSAT-6B)     
1 41029U 15065B   26185.95607816  .00000000  00000+0  00000+0 0  9995
2 41029   0.0165 259.2442 0004530 302.2284  91.6681  1.00268715 38946
